[{"OBJECT_NAME":"BLACKJACK ACES-2","OBJECT_ID":"2023-084Z","EPOCH":"2026-03-09T22:41:57.112224","MEAN_MOTION":15.20437873,"ECCENTRICITY":5.883e-5,"INCLINATION":97.6035,"RA_OF_ASC_NODE":203.5392,"ARG_OF_PERICENTER":31.4555,"MEAN_ANOMALY":328.6715,"EPHEMERIS_TYPE":0,"CLASSIFICATION_TYPE":"U","NORAD_CAT_ID":56955,"ELEMENT_SET_NO":999,"REV_AT_EPOCH":15211,"BSTAR":0.00051478919,"MEAN_MOTION_DOT":0.00011167,"MEAN_MOTION_DDOT":0},{"OBJECT_NAME":"PULSAR-0","OBJECT_ID":"2025-135P","EPOCH":"2026-03-09T21:02:58.177536","MEAN_MOTION":15.1958967,"ECCENTRICITY":0.00037333,"INCLINATION":97.4569,"RA_OF_ASC_NODE":184.5909,"ARG_OF_PERICENTER":149.6553,"MEAN_ANOMALY":210.4899,"EPHEMERIS_TYPE":0,"CLASSIFICATION_TYPE":"U","NORAD_CAT_ID":64541,"ELEMENT_SET_NO":999,"REV_AT_EPOCH":3974,"BSTAR":0.00023616879,"MEAN_MOTION_DOT":4.959e-5,"MEAN_MOTION_DDOT":0}]
